{
  "norad_id": 56317,
  "name": "STARLINK-6038",
  "history": [
    {
      "epoch": "2026-03-28T22:33:02.115648Z",
      "apogee_km": 550.824650798193,
      "perigee_km": 548.2032276827858,
      "latitude_deg": 6.098121706424185e-05,
      "longitude_deg": -74.41177896527734,
      "height_km": 552.6219979221146,
      "semi_major_axis_km": 6927.65093924049,
      "eccentricity": 0.0001892,
      "inclination_deg": 97.6035,
      "raan_deg": 90.1999,
      "arg_perigee_deg": 92.01,
      "mean_anomaly_deg": 268.1344,
      "mean_motion_rev_day": 15.05649092
    },
    {
      "epoch": "2026-03-28T22:33:02.116512Z",
      "apogee_km": 550.8243736921559,
      "perigee_km": 548.203504788823,
      "latitude_deg": 6.553512533013817e-05,
      "longitude_deg": -74.41178317971112,
      "height_km": 552.6219882027609,
      "semi_major_axis_km": 6927.65093924049,
      "eccentricity": 0.00018916,
      "inclination_deg": 97.6035,
      "raan_deg": 90.1999,
      "arg_perigee_deg": 92.01,
      "mean_anomaly_deg": 268.1344,
      "mean_motion_rev_day": 15.05649092
    },
    {
      "epoch": "2026-03-30T00:04:14.040192Z",
      "apogee_km": 550.8311948164192,
      "perigee_km": 548.2097692252237,
      "latitude_deg": 7.330578659672426e-05,
      "longitude_deg": -97.21163401094097,
      "height_km": 552.6469626436862,
      "semi_major_axis_km": 6927.657482020822,
      "eccentricity": 0.0001892,
      "inclination_deg": 97.6033,
      "raan_deg": 91.2478,
      "arg_perigee_deg": 92.8157,
      "mean_anomaly_deg": 267.3287,
      "mean_motion_rev_day": 15.05646959
    },
    {
      "epoch": "2026-03-30T06:27:02.401056Z",
      "apogee_km": 550.8030499860388,
      "perigee_km": 548.2603184721802,
      "latitude_deg": 2.659819709255417e-05,
      "longitude_deg": 167.08714749035255,
      "height_km": 552.6595486973234,
      "semi_major_axis_km": 6927.668684229109,
      "eccentricity": 0.00018352,
      "inclination_deg": 97.604,
      "raan_deg": 91.5101,
      "arg_perigee_deg": 92.9617,
      "mean_anomaly_deg": 267.182,
      "mean_motion_rev_day": 15.05643307
    }
  ]
}